NORAD_CAT_ID,OBJECT_NAME,OBJECT_TYPE,EPOCH,MEAN_MOTION,ECCENTRICITY,INCLINATION,RA_OF_ASC_NODE,ARG_OF_PERICENTER,MEAN_ANOMALY,BSTAR,MEAN_MOTION_DOT,MEAN_MOTION_DDOT,TLE_LINE0,TLE_LINE1,TLE_LINE2,SEMIMAJOR_AXIS,PERIOD,APOGEE,PERIGEE,DECAYED
55952.0,STARLINK-5893,PAYLOAD,2023-05-04 21:24:01,15.69928177,0.0003284,70.0024,45.7579,263.2976,96.7846,2.6726e-05,3.003e-05,0.0,0 STARLINK-5893,1 55952U 23037AQ  23124.89168616  .00003003  00000-0  26726-4 0  9991,2 55952  70.0024  45.7579 0003284 263.2976  96.7846 15.69928177  7743,6737.239,91.724,361.317,356.892,0.0
55952.0,STARLINK-5893,PAYLOAD,2023-05-05 05:02:47,15.69927285,0.0003398,70.0022,44.861,266.5482,93.5325,1.8197e-05,1.976e-05,0.0,0 STARLINK-5893,1 55952U 23037AQ  23125.21026957  .00001976  00000-0  18197-4 0  9999,2 55952  70.0022  44.8610 0003398 266.5482  93.5325 15.69927285  8131,6737.242,91.724,361.396,356.818,0.0
55952.0,STARLINK-5893,PAYLOAD,2023-05-05 20:20:18,15.69921834,0.0003383,70.0019,43.0697,262.8902,97.1909,2.6534e-06,1.06e-06,0.0,0 STARLINK-5893,1 55952U 23037AQ  23125.84743991  .00000106  00000-0  26534-5 0  9991,2 55952  70.0019  43.0697 0003383 262.8902  97.1909 15.69921834  7897,6737.258,91.724,361.402,356.843,0.0
55952.0,STARLINK-5893,PAYLOAD,2023-05-06 03:59:04,15.69926879,0.0003304,70.0023,42.177,260.3579,99.7243,8.0301e-06,7.53e-06,0.0,0 STARLINK-5893,1 55952U 23037AQ  23126.16602211  .00000753  00000-0  80301-5 0  9996,2 55952  70.0023  42.1770 0003304 260.3579  99.7243 15.69926879  7949,6737.243,91.724,361.334,356.882,0.0
55952.0,STARLINK-5893,PAYLOAD,2023-05-07 02:55:21,15.69912199,0.0003266,70.0022,39.4902,260.8973,99.1853,-1.4102e-05,-1.907e-05,0.0,0 STARLINK-5893,1 55952U 23037AQ  23127.12177847 -.00001907  00000-0 -14102-4 0  9994,2 55952  70.0022  39.4902 0003266 260.8973  99.1853 15.69912199  8430,6737.285,91.725,361.351,356.95,0.0
55952.0,STARLINK-5893,PAYLOAD,2023-05-07 04:27:06,15.69910876,0.0003364,70.002,39.3104,266.6999,93.3812,-1.4844e-05,-1.996e-05,0.0,0 STARLINK-5893,1 55952U 23037AQ  23127.18549675 -.00001996  00000-0 -14844-4 0  9993,2 55952  70.0020  39.3104 0003364 266.6999  93.3812 15.69910876  8107,6737.289,91.725,361.42,356.888,0.0
55952.0,STARLINK-5893,PAYLOAD,2023-05-07 21:16:22,15.69925562,0.0003645,70.0021,37.3405,269.9306,90.1472,1.6919e-05,1.822e-05,0.0,0 STARLINK-5893,1 55952U 23037AQ  23127.88637523  .00001822  00000-0  16919-4 0  9991,2 55952  70.0021  37.3405 0003645 269.9306  90.1472 15.69925562  8554,6737.247,91.724,361.568,356.656,0.0
55952.0,STARLINK-5893,PAYLOAD,2023-05-08 03:23:22,15.69938996,0.0003765,70.0021,36.6245,266.7845,93.292,7.9703e-05,9.388e-05,0.0,0 STARLINK-5893,1 55952U 23037AQ  23128.14123729  .00009388  00000-0  79703-4 0  9994,2 55952  70.0021  36.6245 0003765 266.7845  93.2920 15.69938996  8595,6737.209,91.723,361.61,356.537,0.0
55952.0,STARLINK-5893,PAYLOAD,2023-05-08 11:02:08,15.69929777,0.0003471,70.0007,35.728,263.6306,96.4494,3.2463e-05,3.693e-05,0.0,0 STARLINK-5893,1 55952U 23037AQ  23128.45982187  .00003693  00000-0  32463-4 0  9994,2 55952  70.0007  35.7280 0003471 263.6306  96.4494 15.69929777  8644,6737.235,91.724,361.438,356.761,0.0
55952.0,STARLINK-5893,PAYLOAD,2023-05-08 20:12:39,15.69932795,0.0003378,70.0028,34.654,267.142,92.9389,4.1306e-05,4.759e-05,0.0,0 STARLINK-5893,1 55952U 23037AQ  23128.84212319  .00004759  00000-0  41306-4 0  9990,2 55952  70.0028  34.6540 0003378 267.1420  92.9389 15.69932795  8363,6737.226,91.724,361.367,356.815,0.0
55952.0,STARLINK-5893,PAYLOAD,2023-05-09 03:51:25,15.69929067,0.0003585,70.0018,33.7577,267.443,92.6355,3.052e-05,3.459e-05,0.0,0 STARLINK-5893,1 55952U 23037AQ  23129.16070648  .00003459  00000-0  30520-4 0  9995,2 55952  70.0018  33.7577 0003585 267.4430  92.6355 15.69929067  8410,6737.237,91.724,361.517,356.687,0.0
55952.0,STARLINK-5893,PAYLOAD,2023-05-10 02:47:41,15.69930696,0.0003493,70.0015,31.0701,264.4682,95.6115,1.9198e-05,2.097e-05,0.0,0 STARLINK-5893,1 55952U 23037AQ  23130.11645643  .00002097  00000-0  19198-4 0  9990,2 55952  70.0015  31.0701 0003493 264.4682  95.6115 15.69930696  8564,6737.232,91.724,361.451,356.744,0.0
55952.0,STARLINK-5893,PAYLOAD,2023-05-10 19:36:58,15.69928417,0.0003512,70.0009,29.0993,262.2965,97.7832,2.733e-05,3.075e-05,0.0,0 STARLINK-5893,1 55952U 23037AQ  23130.81734176  .00003075  00000-0  27330-4 0  9991,2 55952  70.0009  29.0993 0003512 262.2965  97.7832 15.69928417  8678,6737.239,91.724,361.47,356.738,0.0
55952.0,STARLINK-5893,PAYLOAD,2023-05-11 01:43:58,15.69932873,0.0003497,70.0008,28.3827,262.0521,98.0278,2.7696e-05,3.12e-05,0.0,0 STARLINK-5893,1 55952U 23037AQ  23131.07220612  .00003120  00000-0  27696-4 0  9991,2 55952  70.0008  28.3827 0003497 262.0521  98.0278 15.69932873  9055,6737.226,91.724,361.447,356.735,0.0
55952.0,STARLINK-5893,PAYLOAD,2023-05-11 03:15:43,15.69931411,0.0003484,70.0007,28.2034,262.5152,97.5648,2.6982e-05,3.034e-05,0.0,0 STARLINK-5893,1 55952U 23037AQ  23131.13592357  .00003034  00000-0  26982-4 0  9997,2 55952  70.0007  28.2034 0003484 262.5152  97.5648 15.69931411  8729,6737.23,91.724,361.442,356.748,0.0
55952.0,STARLINK-5893,PAYLOAD,2023-05-12 02:12:00,15.6993958,0.0003782,70.0009,25.5162,267.3399,92.7364,5.189e-05,6.035e-05,0.0,0 STARLINK-5893,1 55952U 23037AQ  23132.09167254  .00006035  00000-0  51890-4 0  9997,2 55952  70.0009  25.5162 0003782 267.3399  92.7364 15.69939580  8873,6737.207,91.723,361.62,356.524,0.0
55952.0,STARLINK-5893,PAYLOAD,2023-05-12 19:00:39,15.71241044,0.0009467,70.0026,23.5465,239.2198,120.8067,0.0034025,0.00456865,0.0,0 STARLINK-5893,1 55952U 23037AQ  23132.79212485  .00456865  00000-0  34025-2 0  9990,2 55952  70.0026  23.5465 0009467 239.2198 120.8067 15.71241044  9325,6733.486,91.647,361.726,348.976,0.0
55952.0,STARLINK-5893,PAYLOAD,2023-05-13 05:43:31,15.69975372,0.0003483,70.0023,22.2946,276.0169,84.063,0.00014606,0.00017424,0.0,0 STARLINK-5893,1 55952U 23037AQ  23133.23856101  .00017424  00000-0  14606-3 0  9997,2 55952  70.0023  22.2946 0003483 276.0169  84.0630 15.69975372  9390,6737.104,91.721,361.316,356.623,0.0
55952.0,STARLINK-5893,PAYLOAD,2023-05-13 08:00:01,15.69940463,0.0003543,70.0013,22.0253,271.6183,263.9522,-0.00043566,-0.0005231,0.0,0 STARLINK-5893,1 55952U 23037AQ  23133.33335648 -.00052310  00000-0 -43566-3 0  9998,2 55952  70.0013  22.0253 0003543 271.6183 263.9522 15.69940463  9405,6737.204,91.723,361.456,356.682,0.0
55952.0,STARLINK-5893,PAYLOAD,2023-05-13 19:29:19,15.69919252,0.0002903,70.0038,20.6821,264.9218,95.1646,5.8298e-06,4.89e-06,0.0,0 STARLINK-5893,1 55952U 23037AQ  23133.81203526  .00000489  00000-0  58298-5 0  9998,2 55952  70.0038  20.6821 0002903 264.9218  95.1646 15.69919252  9145,6737.265,91.724,361.086,357.174,0.0
55952.0,STARLINK-5893,PAYLOAD,2023-05-14 01:36:19,15.69936751,0.0003541,70.0012,19.9638,271.2284,88.8506,4.2303e-05,4.88e-05,0.0,0 STARLINK-5893,1 55952U 23037AQ  23134.06689588  .00004880  00000-0  42303-4 0  9990,2 55952  70.0012  19.9638 0003541 271.2284  88.8506 15.69936751  9526,6737.215,91.723,361.466,356.694,0.0
55952.0,STARLINK-5893,PAYLOAD,2023-05-14 19:57:21,15.69913473,0.0003445,70.0026,17.8171,273.7047,86.3754,-2.0327e-05,-2.655e-05,0.0,0 STARLINK-5893,1 55952U 23037AQ  23134.83150289 -.00002655  00000-0 -20327-4 0  9998,2 55952  70.0026  17.8171 0003445 273.7047  86.3754 15.69913473  9307,6737.282,91.725,361.468,356.826,0.0
55952.0,STARLINK-5893,PAYLOAD,2023-05-15 00:32:37,15.6992006,0.0002802,70.0028,17.2812,251.0419,109.0473,-4.3002e-06,-7.29e-06,0.0,0 STARLINK-5893,1 55952U 23037AQ  23135.02265059 -.00000729  00000-0 -43002-5 0  9998,2 55952  70.0028  17.2812 0002802 251.0419 109.0473 15.69920060  9674,6737.263,91.724,361.015,357.24,0.0
55952.0,STARLINK-5893,PAYLOAD,2023-05-15 09:43:07,15.69929759,0.000317,70.0026,16.2023,267.5946,92.4886,3.2687e-05,3.72e-05,0.0,0 STARLINK-5893,1 55952U 23037AQ  23135.40494872  .00003720  00000-0  32687-4 0  9995,2 55952  70.0026  16.2023 0003170 267.5946  92.4886 15.69929759  9735,6737.235,91.724,361.236,356.964,0.0
55952.0,STARLINK-5893,PAYLOAD,2023-05-15 17:21:53,15.69925954,0.0002782,70.0021,15.3041,253.9553,106.1336,1.2242e-05,1.26e-05,0.0,0 STARLINK-5893,1 55952U 23037AQ  23135.72353397  .00001260  00000-0  12242-4 0  9998,2 55952  70.0021  15.3041 0002782 253.9553 106.1336 15.69925954  9445,6737.246,91.724,360.985,357.237,0.0
55952.0,STARLINK-5893,PAYLOAD,2023-05-16 08:00:01,15.69932095,0.0003425,70.0016,13.5913,261.9431,303.5775,-0.00024372,-0.00029426,0.0,0 STARLINK-5893,1 55952U 23037AQ  23136.33334491 -.00029426  00000-0 -24372-3 0  9992,2 55952  70.0016  13.5913 0003425 261.9431 303.5775 15.69932095  9877,6737.228,91.724,361.401,356.786,0.0
55952.0,STARLINK-5893,PAYLOAD,2023-05-16 14:00:01,15.69910606,0.0003465,70.0018,12.8887,258.2709,279.8172,0.00040299,0.00048498,0.0,0 STARLINK-5893,1 55952U 23037AQ  23136.58335648  .00048498  00000-0  40299-3 0  9998,2 55952  70.0018  12.8887 0003465 258.2709 279.8172 15.69910606  1302,6737.29,91.725,361.489,356.82,0.0
55952.0,STARLINK-5893,PAYLOAD,2023-05-16 22:00:00,15.69918067,0.0003478,70.0016,11.9517,265.2909,356.0844,-5.0919e-05,-6.329e-05,0.0,0 STARLINK-5893,1 55952U 23037AQ  23136.91667824 -.00006329  00000-0 -50919-4 0  9999,2 55952  70.0016  11.9517 0003478 265.2909 356.0844 15.69918067  9967,6737.268,91.725,361.477,356.79,0.0
55952.0,STARLINK-5893,PAYLOAD,2023-05-17 01:29:38,15.6854115,0.0005424,70.0031,11.5469,90.9202,269.2614,-0.002771,-0.00304033,0.0,0 STARLINK-5893,1 55952U 23037AQ  23137.06225058 -.00304033  00000-0 -27710-2 0  9999,2 55952  70.0031  11.5469 0005424  90.9202 269.2614 15.68541150  9995,6741.211,91.805,366.732,359.419,0.0
55952.0,STARLINK-5893,PAYLOAD,2023-05-17 14:00:01,15.69920247,0.0003531,70.0012,10.0772,262.5433,165.5518,0.00020388,0.0002437,0.0,0 STARLINK-5893,1 55952U 23037AQ  23137.58335648  .00024370  00000-0  20388-3 0  9999,2 55952  70.0012  10.0772 0003531 262.5433 165.5518 15.69920247 10076,6737.262,91.724,361.506,356.748,0.0
